NORAD_CAT_ID,OBJECT_NAME,OBJECT_TYPE,EPOCH,MEAN_MOTION,ECCENTRICITY,INCLINATION,RA_OF_ASC_NODE,ARG_OF_PERICENTER,MEAN_ANOMALY,BSTAR,MEAN_MOTION_DOT,MEAN_MOTION_DDOT,TLE_LINE0,TLE_LINE1,TLE_LINE2,SEMIMAJOR_AXIS,PERIOD,APOGEE,PERIGEE,DECAYED
53853.0,STARLINK-4794,PAYLOAD,2023-12-16 23:33:29,15.08809585,0.0001707,53.2181,346.6944,84.6685,275.4502,0.00037693,5.711e-05,0.0,0 STARLINK-4794,1 53853U 22114AM  23350.98159476  .00005711  00000-0  37693-3 0  9991,2 53853  53.2181 346.6944 0001707  84.6685 275.4502 15.08809585 69597,6917.973,95.439,541.019,538.657,0.0
53853.0,STARLINK-4794,PAYLOAD,2023-12-17 07:30:25,15.08802282,0.0001808,53.2181,345.2091,85.3116,274.8082,0.00059536,9.19e-05,0.0,0 STARLINK-4794,1 53853U 22114AM  23351.31279780  .00009190  00000-0  59536-3 0  9995,2 53853  53.2181 345.2091 0001808  85.3116 274.8082 15.08802282 70184,6917.996,95.44,541.111,538.61,0.0
53853.0,STARLINK-4794,PAYLOAD,2023-12-18 04:10:24,15.08855015,0.0001657,53.2179,341.346,88.6988,271.4194,0.00016806,2.389e-05,0.0,0 STARLINK-4794,1 53853U 22114AM  23352.17389984  .00002389  00000-0  16806-3 0  9994,2 53853  53.2179 341.3460 0001657  88.6988 271.4194 15.08855015 69775,6917.834,95.437,540.846,538.553,0.0
53853.0,STARLINK-4794,PAYLOAD,2023-12-18 05:45:47,15.0885594,0.0001707,53.2177,341.0453,85.117,275.0017,0.00017818,2.55e-05,0.0,0 STARLINK-4794,1 53853U 22114AM  23352.24013849  .00002550  00000-0  17818-3 0  9990,2 53853  53.2177 341.0453 0001707  85.1170 275.0017 15.08855940 70327,6917.832,95.437,540.878,538.516,0.0
53853.0,STARLINK-4794,PAYLOAD,2023-12-19 04:01:13,15.08840376,0.0001632,53.2179,336.882,100.4078,259.7098,1.4369e-05,-5.9e-07,0.0,0 STARLINK-4794,1 53853U 22114AM  23353.16751199 -.00000059  00000-0  14369-4 0  9991,2 53853  53.2179 336.8820 0001632 100.4078 259.7098 15.08840376 69923,6917.879,95.438,540.873,538.615,0.0
53853.0,STARLINK-4794,PAYLOAD,2023-12-19 05:36:36,15.08841142,0.0001787,53.2179,336.5826,104.2673,255.8518,1.739e-05,-1.1e-07,0.0,0 STARLINK-4794,1 53853U 22114AM  23353.23375133 -.00000011  00000-0  17390-4 0  9994,2 53853  53.2179 336.5826 0001787 104.2673 255.8518 15.08841142 70478,6917.877,95.437,540.978,538.506,0.0
53853.0,STARLINK-4794,PAYLOAD,2023-12-20 03:52:00,15.088409,0.0001802,53.2182,332.418,112.3262,247.7922,-8.791e-05,-1.687e-05,0.0,0 STARLINK-4794,1 53853U 22114AM  23354.16111414 -.00001687  00000-0 -87910-4 0  9993,2 53853  53.2182 332.4180 0001802 112.3262 247.7922 15.08840900 70618,6917.878,95.437,540.989,538.496,0.0
53853.0,STARLINK-4794,PAYLOAD,2023-12-21 03:42:46,15.08845249,0.0001577,53.2194,327.969,92.3803,267.737,0.0001917,2.765e-05,0.0,0 STARLINK-4794,1 53853U 22114AM  23355.15470690  .00002765  00000-0  19170-3 0  9995,2 53853  53.2194 327.9690 0001577  92.3803 267.7370 15.08845249 70220,6917.864,95.437,540.82,538.638,0.0
53853.0,STARLINK-4794,PAYLOAD,2023-12-22 03:33:35,15.08831793,0.0001376,53.2173,323.4898,95.6953,264.4196,-3.0999e-05,-7.81e-06,0.0,0 STARLINK-4794,1 53853U 22114AM  23356.14832234 -.00000781  00000-0 -30999-4 0  9992,2 53853  53.2173 323.4898 0001376  95.6953 264.4196 15.08831793 70372,6917.905,95.438,540.722,538.819,0.0
53853.0,STARLINK-4794,PAYLOAD,2023-12-22 05:08:58,15.08831971,0.0001327,53.2177,323.1978,89.6402,270.4742,-2.7915e-05,-7.32e-06,0.0,0 STARLINK-4794,1 53853U 22114AM  23356.21456340 -.00000732  00000-0 -27915-4 0  9990,2 53853  53.2177 323.1978 0001327  89.6402 270.4742 15.08831971 70923,6917.905,95.438,540.688,538.852,0.0
53853.0,STARLINK-4794,PAYLOAD,2023-12-23 03:24:20,15.08858991,0.0001485,53.2182,319.0399,79.4203,280.6957,0.00010822,1.436e-05,0.0,0 STARLINK-4794,1 53853U 22114AM  23357.14190425  .00001436  00000-0  10822-3 0  9990,2 53853  53.2182 319.0399 0001485  79.4203 280.6957 15.08858991 70529,6917.822,95.436,540.715,538.66,0.0
53853.0,STARLINK-4794,PAYLOAD,2023-12-23 08:10:29,15.08865101,0.0001391,53.2173,318.1448,100.7784,259.3365,0.00028031,4.179e-05,0.0,0 STARLINK-4794,1 53853U 22114AM  23357.34062089  .00004179  00000-0  28031-3 0  9994,2 53853  53.2173 318.1448 0001391 100.7784 259.3365 15.08865101 71092,6917.804,95.436,540.631,538.706,0.0
53853.0,STARLINK-4794,PAYLOAD,2023-12-24 03:15:08,15.08835909,0.0001534,53.2176,314.5706,74.2659,285.8503,4.7439e-05,4.67e-06,0.0,0 STARLINK-4794,1 53853U 22114AM  23358.13551931  .00000467  00000-0  47439-4 0  9991,2 53853  53.2176 314.5706 0001534  74.2659 285.8503 15.08835909 70671,6917.893,95.438,540.819,538.697,0.0
53853.0,STARLINK-4794,PAYLOAD,2023-12-24 04:50:32,15.08836264,0.000159,53.2178,314.2735,67.8971,292.219,6.3288e-05,7.19e-06,0.0,0 STARLINK-4794,1 53853U 22114AM  23358.20175991  .00000719  00000-0  63288-4 0  9997,2 53853  53.2178 314.2735 0001590  67.8971 292.2190 15.08836264 71220,6917.892,95.438,540.857,538.657,0.0
53853.0,STARLINK-4794,PAYLOAD,2023-12-24 20:44:23,15.08837129,0.000139,53.2158,311.3092,80.3773,279.7376,0.00032214,4.842e-05,0.0,0 STARLINK-4794,1 53853U 22114AM  23358.86416291  .00004842  00000-0  32214-3 0  9995,2 53853  53.2158 311.3092 0001390  80.3773 279.7376 15.08837129 71328,6917.889,95.438,540.716,538.793,0.0
53853.0,STARLINK-4794,PAYLOAD,2023-12-25 03:05:56,15.08851237,0.0001406,53.2157,310.12,80.3133,279.8018,0.0010171,0.00015941,0.0,0 STARLINK-4794,1 53853U 22114AM  23359.12912206  .00015941  00000-0  10171-2 0  9991,2 53853  53.2157 310.1200 0001406  80.3133 279.8018 15.08851237 70827,6917.846,95.437,540.684,538.738,0.0
53853.0,STARLINK-4794,PAYLOAD,2023-12-25 20:35:10,15.08848658,0.00018,53.2159,306.8501,78.6908,281.4286,0.00050884,7.821e-05,0.0,0 STARLINK-4794,1 53853U 22114AM  23359.85776347  .00007821  00000-0  50884-3 0  9999,2 53853  53.2159 306.8501 0001800  78.6908 281.4286 15.08848658 70934,6917.854,95.437,540.964,538.474,0.0
53853.0,STARLINK-4794,PAYLOAD,2023-12-26 02:56:43,15.08841076,0.0001841,53.2157,305.6592,60.2811,299.8365,0.00025648,3.796e-05,0.0,0 STARLINK-4794,1 53853U 22114AM  23360.12272635  .00003796  00000-0  25648-3 0  9999,2 53853  53.2157 305.6592 0001841  60.2811 299.8365 15.08841076 70976,6917.877,95.437,541.016,538.469,0.0
53853.0,STARLINK-4794,PAYLOAD,2023-12-26 06:07:29,15.08850318,0.0001559,53.2172,305.0602,104.4103,255.7062,0.00037956,5.76e-05,0.0,0 STARLINK-4794,1 53853U 22114AM  23360.25520028  .00005760  00000-0  37956-3 0  9993,2 53853  53.2172 305.0602 0001559 104.4103 255.7062 15.08850318 70996,6917.849,95.437,540.792,538.635,0.0
53853.0,STARLINK-4794,PAYLOAD,2023-12-27 02:47:30,15.08841534,0.0001634,53.2164,301.198,90.9325,269.1854,0.000129,1.766e-05,0.0,0 STARLINK-4794,1 53853U 22114AM  23361.11632565  .00001766  00000-0  12900-3 0  9993,2 53853  53.2164 301.1980 0001634  90.9325 269.1854 15.08841534 71126,6917.876,95.437,540.871,538.61,0.0
53853.0,STARLINK-4794,PAYLOAD,2023-12-27 20:16:45,15.08841512,0.0001774,53.2178,297.9246,101.953,258.1661,0.0002384,3.508e-05,0.0,0 STARLINK-4794,1 53853U 22114AM  23361.84496841  .00003508  00000-0  23840-3 0  9999,2 53853  53.2178 297.9246 0001774 101.9530 258.1661 15.08841512 71775,6917.876,95.437,540.968,538.514,0.0
53853.0,STARLINK-4794,PAYLOAD,2023-12-28 05:49:03,15.08846579,0.000182,53.2184,296.1396,110.1348,249.984,0.00026081,3.866e-05,0.0,0 STARLINK-4794,1 53853U 22114AM  23362.24240568  .00003866  00000-0  26081-3 0  9994,2 53853  53.2184 296.1396 0001820 110.1348 249.9840 15.08846579 71292,6917.86,95.437,540.984,538.466,0.0
53853.0,STARLINK-4794,PAYLOAD,2023-12-29 00:53:41,15.08840301,0.0001609,53.2174,292.5698,103.8384,256.2787,7.0121e-05,8.28e-06,0.0,0 STARLINK-4794,1 53853U 22114AM  23363.03728812  .00000828  00000-0  70121-4 0  9995,2 53853  53.2174 292.5698 0001609 103.8384 256.2787 15.08840301 71412,6917.879,95.438,540.858,538.631,0.0
53853.0,STARLINK-4794,PAYLOAD,2023-12-30 02:19:51,15.08845845,0.0001587,53.2173,287.8121,102.9981,257.1188,9.9934e-05,1.303e-05,0.0,0 STARLINK-4794,1 53853U 22114AM  23364.09712476  .00001303  00000-0  99934-4 0  9993,2 53853  53.2173 287.8121 0001587 102.9981 257.1188 15.08845845 71577,6917.863,95.437,540.825,538.63,0.0
53853.0,STARLINK-4794,PAYLOAD,2023-12-30 18:13:42,15.08843739,0.0001615,53.2175,284.8412,106.0774,254.0396,0.00012356,1.679e-05,0.0,0 STARLINK-4794,1 53853U 22114AM  23364.75952484  .00001679  00000-0  12356-3 0  9999,2 53853  53.2175 284.8412 0001615 106.0774 254.0396 15.08843739 72215,6917.869,95.437,540.851,538.617,0.0
53853.0,STARLINK-4794,PAYLOAD,2023-12-31 03:46:02,15.08838573,0.0001392,53.2179,283.0563,83.2322,276.8829,5.2938e-05,5.55e-06,0.0,0 STARLINK-4794,1 53853U 22114AM  23365.15697263  .00000555  00000-0  52938-4 0  9998,2 53853  53.2179 283.0563 0001392  83.2322 276.8829 15.08838573 71733,6917.885,95.438,540.713,538.787,0.0
53853.0,STARLINK-4794,PAYLOAD,2023-12-31 21:15:18,15.08744152,0.000205,53.218,279.7857,87.8865,272.2362,0.0013895,0.00021837,0.0,0 STARLINK-4794,1 53853U 22114AM  23365.88562814  .00021837  00000-0  13895-2 0  9994,2 53853  53.2180 279.7857 0002050  87.8865 272.2362 15.08744152 72380,6918.173,95.444,541.457,538.62,0.0
53853.0,STARLINK-4794,PAYLOAD,2024-01-01 03:36:49,15.08832476,0.000153,53.2177,278.5959,93.8304,266.2863,0.0003474,5.244e-05,0.0,0 STARLINK-4794,1 53853U 22114AM  24001.15057009  .00005244  00000-0  34740-3 0  9994,2 53853  53.2177 278.5959 0001530  93.8304 266.2863 15.08832476 72424,6917.903,95.438,540.827,538.71,0.0
53853.0,STARLINK-4794,PAYLOAD,2024-01-01 22:41:26,15.08840178,0.0001391,53.2174,275.0269,105.4911,254.6235,9.244e-05,1.184e-05,0.0,0 STARLINK-4794,1 53853U 22114AM  24001.94545007  .00001184  00000-0  92440-4 0  9992,2 53853  53.2174 275.0269 0001391 105.4911 254.6235 15.08840178 72541,6917.88,95.438,540.707,538.783,0.0
53853.0,STARLINK-4794,PAYLOAD,2024-01-02 03:27:35,15.08847947,0.000137,53.2171,274.1346,94.4485,265.6663,0.00014069,1.952e-05,0.0,0 STARLINK-4794,1 53853U 22114AM  24002.14416400  .00001952  00000-0  14069-3 0  9992,2 53853  53.2171 274.1346 0001370  94.4485 265.6663 15.08847947 72036,6917.856,95.437,540.669,538.773,0.0
